[{"OBJECT_NAME":"STARLINK-4148","OBJECT_ID":"2022-086BD","EPOCH":"2026-03-09T13:16:38.488800","MEAN_MOTION":15.08843952,"ECCENTRICITY":9.544e-5,"INCLINATION":53.2179,"RA_OF_ASC_NODE":174.7206,"ARG_OF_PERICENTER":100.9938,"MEAN_ANOMALY":259.1161,"EPHEMERIS_TYPE":0,"CLASSIFICATION_TYPE":"U","NORAD_CAT_ID":53293,"ELEMENT_SET_NO":999,"REV_AT_EPOCH":20130,"BSTAR":4.984367e-6,"MEAN_MOTION_DOT":-2.08e-6,"MEAN_MOTION_DDOT":0},{"OBJECT_NAME":"DELFI-N3XT","OBJECT_ID":"2013-066N","EPOCH":"2026-03-09T17:56:16.820160","MEAN_MOTION":14.93675177,"ECCENTRICITY":0.00763289,"INCLINATION":97.8341,"RA_OF_ASC_NODE":349.2574,"ARG_OF_PERICENTER":176.1438,"MEAN_ANOMALY":184.0386,"EPHEMERIS_TYPE":0,"CLASSIFICATION_TYPE":"U","NORAD_CAT_ID":39428,"ELEMENT_SET_NO":999,"REV_AT_EPOCH":65977,"BSTAR":0.00065912071,"MEAN_MOTION_DOT":7.321e-5,"MEAN_MOTION_DDOT":0}]
